[
    {
        "Altitude(m)": 554417.1115127674,
        "Argument of Periapsis(deg)": 0.0,
        "Eccentricity": 0.0,
        "Inclination(deg)": 53.0,
        "Latitude(deg)": 25.652231498781955,
        "Longitude(deg)": 18.936273693986582,
        "Mean Anomaly(deg)": -212.7273,
        "RAAN(deg)": 320.0,
        "Satellite Name": "Starlink Shell 1 1417",
        "Satellite Number": 1417,
        "Semi-Major Axis(m)": 6931778.249405717,
        "Time(s)": 0
    },
    {
        "Altitude(m)": 554357.061849231,
        "Argument of Periapsis(deg)": 0.00034857847951123687,
        "Eccentricity": 0.0,
        "Inclination(deg)": 53.0,
        "Latitude(deg)": 25.182006709519698,
        "Longitude(deg)": 19.356270129202922,
        "Mean Anomaly(deg)": -212.10046879644332,
        "RAAN(deg)": 319.9994812299225,
        "Satellite Name": "Starlink Shell 1 1417",
        "Satellite Number": 1417,
        "Semi-Major Axis(m)": 6931778.249405717,
        "Time(s)": 10
    },
    {
        "Altitude(m)": 554298.6089972733,
        "Argument of Periapsis(deg)": 0.0006971569590224737,
        "Eccentricity": 0.0,
        "Inclination(deg)": 53.0,
        "Latitude(deg)": 24.710326039407224,
        "Longitude(deg)": 19.77273668947002,
        "Mean Anomaly(deg)": -211.47363759288652,
        "RAAN(deg)": 319.9989624598451,
        "Satellite Name": "Starlink Shell 1 1417",
        "Satellite Number": 1417,
        "Semi-Major Axis(m)": 6931778.249405717,
        "Time(s)": 20
    },
    {
        "Altitude(m)": 554241.8012848389,
        "Argument of Periapsis(deg)": 0.0010457354385337105,
        "Eccentricity": 0.0,
        "Inclination(deg)": 53.0,
        "Latitude(deg)": 24.237230681658446,
        "Longitude(deg)": 20.18576416614538,
        "Mean Anomaly(deg)": -210.84680638932983,
        "RAAN(deg)": 319.99844368976756,
        "Satellite Name": "Starlink Shell 1 1417",
        "Satellite Number": 1417,
        "Semi-Major Axis(m)": 6931778.249405717,
        "Time(s)": 30
    },
    {
        "Altitude(m)": 554186.6863879499,
        "Argument of Periapsis(deg)": 0.0013943139180449475,
        "Eccentricity": 0.0,
        "Inclination(deg)": 53.0,
        "Latitude(deg)": 23.762760994798153,
        "Longitude(deg)": 20.595442593254887,
        "Mean Anomaly(deg)": -210.21997518577314,
        "RAAN(deg)": 319.9979249196901,
        "Satellite Name": "Starlink Shell 1 1417",
        "Satellite Number": 1417,
        "Semi-Major Axis(m)": 6931778.249405717,
        "Time(s)": 40
    },
    {
        "Altitude(m)": 554133.3113048958,
        "Argument of Periapsis(deg)": 0.0017428923975561844,
        "Eccentricity": 0.0,
        "Inclination(deg)": 53.0,
        "Latitude(deg)": 23.286956528732265,
        "Longitude(deg)": 21.001860255157425,
        "Mean Anomaly(deg)": -209.59314398221642,
        "RAAN(deg)": 319.9974061496127,
        "Satellite Name": "Starlink Shell 1 1417",
        "Satellite Number": 1417,
        "Semi-Major Axis(m)": 6931778.249405717,
        "Time(s)": 50
    },
    {
        "Altitude(m)": 554081.7223307296,
        "Argument of Periapsis(deg)": 0.002091470877067421,
        "Eccentricity": 0.0,
        "Inclination(deg)": 53.0,
        "Latitude(deg)": 22.809856050289422,
        "Longitude(deg)": 21.405104208456937,
        "Mean Anomaly(deg)": -208.96631277865964,
        "RAAN(deg)": 319.99688737953517,
        "Satellite Name": "Starlink Shell 1 1417",
        "Satellite Number": 1417,
        "Semi-Major Axis(m)": 6931778.249405717,
        "Time(s)": 60
    },
    {
        "Altitude(m)": 554031.9650320291,
        "Argument of Periapsis(deg)": 0.0024400493565786582,
        "Eccentricity": 0.0,
        "Inclination(deg)": 53.0,
        "Latitude(deg)": 22.331497568232116,
        "Longitude(deg)": 21.805260805155697,
        "Mean Anomaly(deg)": -208.339481575103,
        "RAAN(deg)": 319.99636860945765,
        "Satellite Name": "Starlink Shell 1 1417",
        "Satellite Number": 1417,
        "Semi-Major Axis(m)": 6931778.249405717,
        "Time(s)": 70
    },
    {
        "Altitude(m)": 553984.0842220406,
        "Argument of Periapsis(deg)": 0.002788627836089895,
        "Eccentricity": 0.0,
        "Inclination(deg)": 53.0,
        "Latitude(deg)": 21.851918357738537,
        "Longitude(deg)": 22.202414704047303,
        "Mean Anomaly(deg)": -207.71265037154635,
        "RAAN(deg)": 319.99584983938024,
        "Satellite Name": "Starlink Shell 1 1417",
        "Satellite Number": 1417,
        "Semi-Major Axis(m)": 6931778.249405717,
        "Time(s)": 80
    },
    {
        "Altitude(m)": 553938.1239361345,
        "Argument of Periapsis(deg)": 0.0031372063156011316,
        "Eccentricity": 0.0,
        "Inclination(deg)": 53.0,
        "Latitude(deg)": 21.37115498436448,
        "Longitude(deg)": 22.596649395982965,
        "Mean Anomaly(deg)": -207.08581916798957,
        "RAAN(deg)": 319.9953310693027,
        "Satellite Name": "Starlink Shell 1 1417",
        "Satellite Number": 1417,
        "Semi-Major Axis(m)": 6931778.249405717,
        "Time(s)": 90
    },
    {
        "Altitude(m)": 553894.1274076286,
        "Argument of Periapsis(deg)": 0.0034857847951123688,
        "Eccentricity": 0.0,
        "Inclination(deg)": 53.0,
        "Latitude(deg)": 20.889243327488558,
        "Longitude(deg)": 22.988047730030555,
        "Mean Anomaly(deg)": -206.45898796443282,
        "RAAN(deg)": 319.99481229922526,
        "Satellite Name": "Starlink Shell 1 1417",
        "Satellite Number": 1417,
        "Semi-Major Axis(m)": 6931778.249405717,
        "Time(s)": 100
    },
    {
        "Altitude(m)": 553852.1370439572,
        "Argument of Periapsis(deg)": 0.003834363274623606,
        "Eccentricity": 0.0,
        "Inclination(deg)": 53.0,
        "Latitude(deg)": 20.406218603243325,
        "Longitude(deg)": 23.376690927553597,
        "Mean Anomaly(deg)": -205.83215676087616,
        "RAAN(deg)": 319.9942935291478,
        "Satellite Name": "Starlink Shell 1 1417",
        "Satellite Number": 1417,
        "Semi-Major Axis(m)": 6931778.249405717,
        "Time(s)": 110
    },
    {
        "Altitude(m)": 553812.1944032334,
        "Argument of Periapsis(deg)": 0.004182941754134842,
        "Eccentricity": 0.0,
        "Inclination(deg)": 53.0,
        "Latitude(deg)": 19.922115386945826,
        "Longitude(deg)": 23.762659109867464,
        "Mean Anomaly(deg)": -205.20532555731938,
        "RAAN(deg)": 319.99377475907033,
        "Satellite Name": "Starlink Shell 1 1417",
        "Satellite Number": 1417,
        "Semi-Major Axis(m)": 6931778.249405717,
        "Time(s)": 120
    },
    {
        "Altitude(m)": 553774.3401712205,
        "Argument of Periapsis(deg)": 0.004531520233646079,
        "Eccentricity": 0.0,
        "Inclination(deg)": 53.0,
        "Latitude(deg)": 19.436967635034463,
        "Longitude(deg)": 24.146031826513774,
        "Mean Anomaly(deg)": -204.57849435376272,
        "RAAN(deg)": 319.9932559889928,
        "Satellite Name": "Starlink Shell 1 1417",
        "Satellite Number": 1417,
        "Semi-Major Axis(m)": 6931778.249405717,
        "Time(s)": 130
    },
    {
        "Altitude(m)": 553738.6141386757,
        "Argument of Periapsis(deg)": 0.0048800987131573164,
        "Eccentricity": 0.0,
        "Inclination(deg)": 53.0,
        "Latitude(deg)": 18.950808706514984,
        "Longitude(deg)": 24.526887071204925,
        "Mean Anomaly(deg)": -203.95166315020597,
        "RAAN(deg)": 319.9927372189154,
        "Satellite Name": "Starlink Shell 1 1417",
        "Satellite Number": 1417,
        "Semi-Major Axis(m)": 6931778.249405717,
        "Time(s)": 140
    },
    {
        "Altitude(m)": 553705.0551791268,
        "Argument of Periapsis(deg)": 0.005228677192668553,
        "Eccentricity": 0.0,
        "Inclination(deg)": 53.0,
        "Latitude(deg)": 18.463671383934557,
        "Longitude(deg)": 24.905301811113176,
        "Mean Anomaly(deg)": -203.32483194664934,
        "RAAN(deg)": 319.9922184488379,
        "Satellite Name": "Starlink Shell 1 1417",
        "Satellite Number": 1417,
        "Semi-Major Axis(m)": 6931778.249405717,
        "Time(s)": 150
    },
    {
        "Altitude(m)": 553673.7012270836,
        "Argument of Periapsis(deg)": 0.00557725567217979,
        "Eccentricity": 0.0,
        "Inclination(deg)": 53.0,
        "Latitude(deg)": 17.975587893888157,
        "Longitude(deg)": 25.281352516567768,
        "Mean Anomaly(deg)": -202.69800074309256,
        "RAAN(deg)": 319.9916996787604,
        "Satellite Name": "Starlink Shell 1 1417",
        "Satellite Number": 1417,
        "Semi-Major Axis(m)": 6931778.249405717,
        "Time(s)": 160
    },
    {
        "Altitude(m)": 553644.5892566846,
        "Argument of Periapsis(deg)": 0.0059258341516910265,
        "Eccentricity": 0.0,
        "Inclination(deg)": 53.0,
        "Latitude(deg)": 17.486589927067214,
        "Longitude(deg)": 25.655114178226597,
        "Mean Anomaly(deg)": -202.07116953953584,
        "RAAN(deg)": 319.99118090868296,
        "Satellite Name": "Starlink Shell 1 1417",
        "Satellite Number": 1417,
        "Semi-Major Axis(m)": 6931778.249405717,
        "Time(s)": 170
    },
    {
        "Altitude(m)": 553617.7552607941,
        "Argument of Periapsis(deg)": 0.006274412631202263,
        "Eccentricity": 0.0,
        "Inclination(deg)": 53.0,
        "Latitude(deg)": 16.996708657865636,
        "Longitude(deg)": 26.026660837415818,
        "Mean Anomaly(deg)": -201.44433833597915,
        "RAAN(deg)": 319.9906621386055,
        "Satellite Name": "Starlink Shell 1 1417",
        "Satellite Number": 1417,
        "Semi-Major Axis(m)": 6931778.249405717,
        "Time(s)": 180
    }
]